{"fetched_at":"2026-03-29T16:36:15Z","count":15609,"tles":[{"name":"STARLINK-31281","line1":"1 59077U 24041D   26087.77260300  .00001344  00000+0  58324-4 0  9994","line2":"2 59077  43.0027 202.6235 0001083 227.1366 132.9395 15.27599772117246","category":"Starlink"}]}