{
  "norad_id": 59077,
  "name": "STARLINK-31281",
  "history": [
    {
      "epoch": "2026-03-28T18:32:32.899200",
      "apogee_km": 483.73329529606326,
      "perigee_km": 482.24648909852294,
      "latitude_deg": 13.844594116214735,
      "longitude_deg": 161.86988799995743,
      "semi_major_axis_km": 6861.126892197292,
      "eccentricity": 0.00010835,
      "inclination_deg": 43.0027,
      "raan_deg": 202.6235,
      "arg_perigee_deg": 227.1366,
      "mean_anomaly_deg": 132.9395,
      "mean_motion_rev_day": 15.27599772
    }
  ]
}